OBJECT_NAME,OBJECT_ID,EPOCH,MEAN_MOTION,ECCENTRICITY,INCLINATION,RA_OF_ASC_NODE,ARG_OF_PERICENTER,MEAN_ANOMALY,EPHEMERIS_TYPE,CLASSIFICATION_TYPE,NORAD_CAT_ID,ELEMENT_SET_NO,REV_AT_EPOCH,BSTAR,MEAN_MOTION_DOT,MEAN_MOTION_DDOT
STARLINK-31389,2024-036R,2026-06-10T06:37:35.679360,15.30191633,.00012263,53.1615,8.4265,117.4687,242.6439,0,U,59013,999,12950,.14385558E-3,.3903E-4,0
STARLINK-31454,2024-036S,2026-06-10T06:28:28.727616,15.30198118,.00014353,53.1623,8.3900,116.6683,243.4465,0,U,59014,999,12949,.72984975E-4,.1803E-4,0
STARLINK-31521,2024-036T,2026-06-10T06:26:57.278400,15.30202508,.00012971,53.1625,8.3821,108.3610,251.7532,0,U,59015,999,12949,.29553613E-4,.516E-5,0
STARLINK-31526,2024-036U,2026-06-10T05:33:26.797824,15.31700130,.00011495,53.1622,342.5372,90.3136,269.7997,0,U,59016,999,12985,.20438592E-4,.269E-5,0
STARLINK-31406,2024-036V,2026-06-09T19:43:39.073728,15.34390127,.00009672,53.1612,355.6687,81.9885,278.1227,0,U,59017,999,12963,.50170044E-4,.1319E-4,0
STARLINK-31527,2024-036W,2026-06-09T20:48:57.991104,15.30198375,.0001531,53.1620,10.1483,99.3545,260.7629,0,U,59018,999,12943,.11695E-3,.3106E-4,0
STARLINK-31436,2024-036X,2026-06-10T06:42:08.392320,15.30214700,.00013455,53.1613,8.4417,73.1215,286.9934,0,U,59019,999,12949,.86983928E-4,.2219E-4,0
STARLINK-30996,2024-038A,2026-06-09T11:09:52.283808,15.27586958,.00021811,42.9975,228.7542,283.6047,76.4561,0,U,59023,999,13016,.19032814E-3,.498E-4,0
STARLINK-31006,2024-038B,2026-06-09T18:32:58.578144,15.27577584,.0001444,43.0024,176.5725,262.1629,97.9058,0,U,59024,999,12942,.33317E-4,.655E-5,0
STARLINK-31178,2024-038C,2026-06-09T20:49:37.781760,15.27569497,.00016562,42.9956,226.6132,279.3742,80.6923,0,U,59025,999,12874,.334086E-6,-.253E-5,0
STARLINK-30863,2024-038E,2026-06-09T11:56:07.111392,15.27581119,.00003002,43.0108,228.9857,248.1723,111.9097,0,U,59027,999,12868,.18611929E-4,.25E-5,0
STARLINK-31206,2024-038F,2026-06-10T06:17:07.501632,15.27585366,.00017645,43.0012,159.2170,275.2753,84.7898,0,U,59028,999,12968,-.9778E-6,-.289E-5,0
STARLINK-31224,2024-038G,2026-06-09T21:43:04.071936,15.27572004,.00013637,43.0029,226.0349,265.5429,94.5266,0,U,59029,999,12886,.49441568E-4,.1098E-4,0
STARLINK-31186,2024-038H,2026-06-09T20:55:09.770304,15.27577127,.00012229,43.0079,226.6418,268.8406,91.2306,0,U,59030,999,12885,.12896848E-4,.93E-6,0
STARLINK-31211,2024-038J,2026-06-09T21:35:39.402240,15.27581265,.00014951,43.0032,225.9915,258.2883,101.7801,0,U,59031,999,12875,.541354E-5,-.113E-5,0
STARLINK-30862,2024-038K,2026-06-09T21:10:00.083424,15.27581120,.00016589,42.9998,215.5257,267.6443,92.4219,0,U,59032,999,12887,.30132814E-4,.567E-5,0
STARLINK-31210,2024-038L,2026-06-09T20:39:12.647520,15.27578650,.00013501,43.0038,223.1133,268.8485,91.2212,0,U,59033,999,12895,.68482006E-4,.1623E-4,0
STARLINK-31231,2024-038M,2026-06-09T20:33:39.513312,15.27579943,.00013704,43.0063,223.0841,261.7773,98.2923,0,U,59034,999,12878,.23535911E-4,.385E-5,0
STARLINK-31207,2024-038N,2026-06-09T11:03:10.214496,15.27581158,.00015682,42.9996,225.2699,261.4793,98.5881,0,U,59035,999,12889,.13837452E-3,.3548E-4,0
STARLINK-31217,2024-038P,2026-06-09T15:27:34.535808,15.27575741,.00010817,42.9996,129.9069,267.3238,92.7489,0,U,59036,999,13000,-.38222708E-4,-.1313E-4,0
STARLINK-31208,2024-038Q,2026-06-09T12:01:40.481472,15.27586254,.00013833,43.0007,228.9933,283.3354,76.7344,0,U,59037,999,12885,.18004428E-3,.4696E-4,0
STARLINK-31235,2024-038R,2026-06-09T10:59:26.618208,15.27604852,.00025001,43.0030,225.2504,272.9343,87.1223,0,U,59038,999,12883,-.17650245E-3,-.512E-4,0
STARLINK-31220,2024-038S,2026-06-09T11:02:27.473280,15.27583099,.00006798,43.0007,228.7124,220.2748,139.8053,0,U,59039,999,12879,.40144494E-4,.843E-5,0
STARLINK-31225,2024-038T,2026-06-10T07:03:07.955712,15.27584208,.00014903,43.0016,220.3082,268.3247,91.7434,0,U,59040,999,12885,.10063911E-3,.2509E-4,0
STARLINK-31240,2024-038U,2026-06-09T20:59:33.806112,15.27578439,.00013322,43.0066,223.2225,285.8270,74.2435,0,U,59041,999,12889,-.1553154E-4,-.69E-5,0
STARLINK-31202,2024-038V,2026-06-09T20:55:42.185856,15.28659227,.00017619,43.0014,222.3488,107.8775,252.2269,0,U,59042,999,12896,.6428207E-3,.18063E-3,0
STARLINK-31234,2024-038W,2026-06-09T20:50:18.122784,15.27578564,.00013384,42.9995,223.1706,274.4805,85.5893,0,U,59043,999,12878,.259888E-6,-.255E-5,0
STARLINK-31153,2024-038X,2026-06-09T10:53:54.967488,15.27584899,.00008614,42.9969,225.2203,224.5415,135.5368,0,U,59044,999,12872,.18301318E-3,.4778E-4,0
STARLINK-31241,2024-038Y,2026-06-09T20:55:52.209984,15.27573049,.00007689,43.0036,223.2006,258.9954,101.0811,0,U,59045,999,12895,.2642911E-5,-.189E-5,0
STARLINK-31205,2024-038Z,2026-06-09T20:44:45.670272,15.27578003,.00013572,43.0047,223.1376,274.9199,85.1497,0,U,59046,999,12889,.73131814E-4,.1751E-4,0
STARLINK-31265,2024-041A,2026-06-09T16:52:12.428832,15.27578778,.00013118,43.0011,151.0711,270.4386,89.6316,0,U,59074,999,12834,.44034369E-4,.95E-5,0
STARLINK-31276,2024-041B,2026-06-10T06:13:21.775584,15.27579240,.00011762,43.0052,147.5167,260.8525,99.2194,0,U,59075,999,12848,.19955454E-3,.5233E-4,0
STARLINK-31259,2024-041C,2026-06-10T06:18:55.188864,15.27582029,.00006756,42.9992,147.5395,268.2509,91.8265,0,U,59076,999,12738,.87936833E-4,.2159E-4,0
STARLINK-31281,2024-041D,2026-06-10T06:24:27.411552,15.27579099,.00010255,43.0042,147.5726,268.7926,91.2808,0,U,59077,999,12848,.32437196E-4,.631E-5,0
STARLINK-31274,2024-041E,2026-06-10T05:32:51.304704,15.27579132,.00010475,43.0010,148.1516,257.5374,102.5361,0,U,59078,999,12842,.33112692E-4,.649E-5,0
STARLINK-31257,2024-041F,2026-06-09T16:35:33.138528,15.27580830,.00015729,43.0035,150.9885,277.3430,82.7243,0,U,59079,999,12834,.13549459E-3,.3468E-4,0
STARLINK-31292,2024-041H,2026-06-10T06:30:00.481824,15.27576252,.00010893,43.0025,147.5977,271.9593,88.1134,0,U,59081,999,12842,.20665032E-4,.307E-5,0
STARLINK-31286,2024-041J,2026-06-09T16:28:10.024896,15.27575802,.00008243,43.0028,150.9510,307.6023,52.4754,0,U,59082,999,12842,-.17119042E-4,-.733E-5,0
STARLINK-31252,2024-041K,2026-06-10T00:10:06.498624,15.27580763,.00021894,43.0104,66.1621,280.3751,79.6854,0,U,59083,999,12939,.40203317E-4,.844E-5,0
STARLINK-31261,2024-041L,2026-06-10T05:42:06.625152,15.27578224,.00013798,43.0018,148.1991,272.0211,88.0483,0,U,59084,999,12847,.2195348E-4,.342E-5,0
STARLINK-31290,2024-041M,2026-06-10T04:38:18.844224,15.27553551,.00021496,43.0102,134.0291,276.9726,83.0881,0,U,59085,999,12872,-.10539329E-3,-.3159E-4,0
STARLINK-31279,2024-041N,2026-06-09T15:55:03.255168,15.27579499,.00011699,43.0008,151.6273,272.1234,87.9484,0,U,59086,999,12838,.40497665E-4,.852E-5,0
STARLINK-31266,2024-041P,2026-06-09T16:33:42.289056,15.27594476,.00013098,43.0032,150.9779,274.9262,85.1441,0,U,59087,999,12839,.67394807E-4,.1594E-4,0
STARLINK-31313,2024-041Q,2026-06-09T16:37:24.165120,15.27574065,.0002064,43.0038,150.9964,288.4161,71.6466,0,U,59088,999,12834,.23016417E-4,.371E-5,0
STARLINK-31307,2024-041R,2026-06-09T16:31:50.755296,15.27577147,.00016909,43.0041,150.9721,273.0073,87.0585,0,U,59089,999,12839,.9131599E-5,-.11E-6,0
STARLINK-31316,2024-041S,2026-06-09T13:28:28.898976,15.27577184,.00016202,43.0048,105.0457,274.9013,85.1654,0,U,59090,999,12880,.18059189E-4,.235E-5,0
STARLINK-31310,2024-041U,2026-06-10T06:11:42.743040,15.27576584,.00012276,42.9952,148.3533,256.6308,103.4407,0,U,59092,999,12842,.15610592E-4,.168E-5,0
STARLINK-31343,2024-041V,2026-06-10T05:53:12.686208,15.27578219,.00010022,43.0028,148.2539,269.7494,90.3243,0,U,59093,999,12847,.24551343E-4,.414E-5,0
STARLINK-31295,2024-041X,2026-06-09T16:48:30.210624,15.27579916,.00015217,43.0028,151.0457,258.2085,101.8596,0,U,59095,999,12834,.36850839E-4,.752E-5,0
STARLINK-31291,2024-041Y,2026-06-09T16:44:48.298272,15.27579016,.00009486,43.0028,151.0291,290.1073,69.9676,0,U,59096,999,12834,.46445887E-4,.1016E-4,0
STARLINK-31312,2024-044A,2026-06-09T23:15:46.550592,15.27585123,.00019424,42.9996,255.1841,267.6458,92.4172,0,U,59152,999,12829,.891618E-4,.2192E-4,0
STARLINK-31308,2024-044B,2026-06-09T23:50:16.016352,15.27585166,.00001891,42.9888,258.9161,127.5059,232.5810,0,U,59153,999,12826,.45266653E-4,.985E-5,0
STARLINK-31270,2024-044C,2026-06-09T16:22:18.260256,15.27579953,.00008954,43.0044,307.5943,268.5391,91.5358,0,U,59154,999,12766,.49718609E-4,.1106E-4,0
STARLINK-31341,2024-044D,2026-06-09T16:41:57.373152,15.27584627,.00007949,43.0007,311.1381,270.5827,89.4934,0,U,59155,999,12759,.36655521E-4,.747E-5,0
STARLINK-31338,2024-044E,2026-06-09T16:36:22.983552,15.27599599,.00018952,43.0029,311.1077,262.4483,97.6153,0,U,59156,999,12759,.46810359E-4,.1027E-4,0
STARLINK-31334,2024-044F,2026-06-09T16:25:16.137120,15.27596192,.00024803,43.0073,311.0498,268.8110,91.2458,0,U,59157,999,12759,-.11078369E-3,-.3312E-4,0
STARLINK-31297,2024-044G,2026-06-09T16:27:51.394464,15.27579151,.00022643,43.0017,307.6206,274.8149,85.2444,0,U,59158,999,12766,.62105536E-4,.1447E-4,0
STARLINK-31182,2024-044H,2026-06-09T17:08:20.654880,15.27588393,.00001427,43.0108,306.9713,304.6710,55.4128,0,U,59159,999,12767,.35927179E-4,.727E-5,0
STARLINK-31327,2024-044J,2026-06-09T16:31:33.146976,15.27591075,.00008029,43.0025,307.6375,129.9834,230.1088,0,U,59160,999,12766,.2302377E-3,.6081E-4,0
STARLINK-31256,2024-044K,2026-06-10T02:38:49.558848,15.27588719,.00019525,43.0018,304.7803,271.8265,88.2363,0,U,59161,999,12773,.12441404E-3,.3164E-4,0
STARLINK-31272,2024-044L,2026-06-10T02:44:22.118496,15.27591204,.00023476,42.9994,304.8132,256.9654,103.0936,0,U,59162,999,12770,.57986628E-4,.1334E-4,0
STARLINK-31278,2024-044M,2026-06-10T02:49:56.139168,15.27589331,.00001811,43.0009,304.8427,350.5522,9.5326,0,U,59163,999,12770,.64252276E-4,.1507E-4,0
STARLINK-31309,2024-044N,2026-06-10T02:55:29.225856,15.27579979,.00023315,43.0048,304.8702,270.6015,89.4569,0,U,59164,999,12773,.51860827E-4,.1165E-4,0
STARLINK-31325,2024-044P,2026-06-09T03:26:49.912800,15.27583870,.00025944,43.0097,310.4285,274.8469,85.2087,0,U,59165,999,12755,.74984129E-4,.1801E-4,0
